<?xml version="1.0" encoding="UTF-8"?>
<gpx xmlns="http://www.topografix.com/GPX/1/1" xmlns:xsi="http://www.w3.org/2001/XMLSchema-instance" version="1.1" creator="Strava API Assistant" xsi:schemaLocation="http://www.topografix.com/GPX/1/1 http://www.topografix.com/GPX/1/1/gpx.xsd">
  <metadata>
    <name>Ruta Estavar - Cerdanya 15km 700D+</name>
    <desc>Circular des d'Estavar pujant als turons del nord. 15km aprox, 700m D+. Trail running.</desc>
    <time>2026-06-21T07:16:41Z</time>
  </metadata>
  <trk>
    <name>Estavar - Trail Cerdanya 15km 700D+</name>
    <type>trail running</type>
    <trkseg>
      <trkpt lat="42.4789000" lon="2.0453000">
        <ele>1230.0</ele>
      </trkpt>
      <trkpt lat="42.4793225" lon="2.0450914">
        <ele>1233.2</ele>
      </trkpt>
      <trkpt lat="42.4797451" lon="2.0448829">
        <ele>1236.3</ele>
      </trkpt>
      <trkpt lat="42.4801676" lon="2.0446743">
        <ele>1239.5</ele>
      </trkpt>
      <trkpt lat="42.4805902" lon="2.0444658">
        <ele>1242.6</ele>
      </trkpt>
      <trkpt lat="42.4810127" lon="2.0442572">
        <ele>1245.8</ele>
      </trkpt>
      <trkpt lat="42.4814352" lon="2.0440487">
        <ele>1248.9</ele>
      </trkpt>
      <trkpt lat="42.4818578" lon="2.0438401">
        <ele>1252.1</ele>
      </trkpt>
      <trkpt lat="42.4822803" lon="2.0436316">
        <ele>1255.3</ele>
      </trkpt>
      <trkpt lat="42.4827029" lon="2.0434230">
        <ele>1258.4</ele>
      </trkpt>
      <trkpt lat="42.4831254" lon="2.0432145">
        <ele>1261.6</ele>
      </trkpt>
      <trkpt lat="42.4835479" lon="2.0430059">
        <ele>1264.7</ele>
      </trkpt>
      <trkpt lat="42.4839705" lon="2.0427974">
        <ele>1267.9</ele>
      </trkpt>
      <trkpt lat="42.4843930" lon="2.0425888">
        <ele>1271.1</ele>
      </trkpt>
      <trkpt lat="42.4848156" lon="2.0423803">
        <ele>1274.2</ele>
      </trkpt>
      <trkpt lat="42.4852381" lon="2.0421717">
        <ele>1277.4</ele>
      </trkpt>
      <trkpt lat="42.4856606" lon="2.0419632">
        <ele>1280.5</ele>
      </trkpt>
      <trkpt lat="42.4860832" lon="2.0417546">
        <ele>1283.7</ele>
      </trkpt>
      <trkpt lat="42.4865057" lon="2.0415461">
        <ele>1286.8</ele>
      </trkpt>
      <trkpt lat="42.4869282" lon="2.0413375">
        <ele>1290.0</ele>
      </trkpt>
      <trkpt lat="42.4872899" lon="2.0409259">
        <ele>1294.5</ele>
      </trkpt>
      <trkpt lat="42.4876516" lon="2.0405143">
        <ele>1299.0</ele>
      </trkpt>
      <trkpt lat="42.4880133" lon="2.0401027">
        <ele>1303.5</ele>
      </trkpt>
      <trkpt lat="42.4883749" lon="2.0396911">
        <ele>1308.0</ele>
      </trkpt>
      <trkpt lat="42.4887366" lon="2.0392795">
        <ele>1312.5</ele>
      </trkpt>
      <trkpt lat="42.4890983" lon="2.0388679">
        <ele>1317.0</ele>
      </trkpt>
      <trkpt lat="42.4894599" lon="2.0384563">
        <ele>1321.5</ele>
      </trkpt>
      <trkpt lat="42.4898216" lon="2.0380447">
        <ele>1326.0</ele>
      </trkpt>
      <trkpt lat="42.4901833" lon="2.0376331">
        <ele>1330.5</ele>
      </trkpt>
      <trkpt lat="42.4905449" lon="2.0372216">
        <ele>1335.0</ele>
      </trkpt>
      <trkpt lat="42.4909066" lon="2.0368100">
        <ele>1339.5</ele>
      </trkpt>
      <trkpt lat="42.4912683" lon="2.0363984">
        <ele>1344.0</ele>
      </trkpt>
      <trkpt lat="42.4916299" lon="2.0359868">
        <ele>1348.5</ele>
      </trkpt>
      <trkpt lat="42.4919916" lon="2.0355752">
        <ele>1353.0</ele>
      </trkpt>
      <trkpt lat="42.4923533" lon="2.0351636">
        <ele>1357.5</ele>
      </trkpt>
      <trkpt lat="42.4927149" lon="2.0347520">
        <ele>1362.0</ele>
      </trkpt>
      <trkpt lat="42.4930766" lon="2.0343404">
        <ele>1366.5</ele>
      </trkpt>
      <trkpt lat="42.4934383" lon="2.0339288">
        <ele>1371.0</ele>
      </trkpt>
      <trkpt lat="42.4937999" lon="2.0335172">
        <ele>1375.5</ele>
      </trkpt>
      <trkpt lat="42.4941616" lon="2.0331056">
        <ele>1380.0</ele>
      </trkpt>
      <trkpt lat="42.4944240" lon="2.0325973">
        <ele>1384.3</ele>
      </trkpt>
      <trkpt lat="42.4946864" lon="2.0320890">
        <ele>1388.7</ele>
      </trkpt>
      <trkpt lat="42.4949487" lon="2.0315807">
        <ele>1393.0</ele>
      </trkpt>
      <trkpt lat="42.4952111" lon="2.0310725">
        <ele>1397.4</ele>
      </trkpt>
      <trkpt lat="42.4954735" lon="2.0305642">
        <ele>1401.7</ele>
      </trkpt>
      <trkpt lat="42.4957359" lon="2.0300559">
        <ele>1406.1</ele>
      </trkpt>
      <trkpt lat="42.4959982" lon="2.0295476">
        <ele>1410.4</ele>
      </trkpt>
      <trkpt lat="42.4962606" lon="2.0290393">
        <ele>1414.8</ele>
      </trkpt>
      <trkpt lat="42.4965230" lon="2.0285310">
        <ele>1419.1</ele>
      </trkpt>
      <trkpt lat="42.4967854" lon="2.0280227">
        <ele>1423.5</ele>
      </trkpt>
      <trkpt lat="42.4970477" lon="2.0275145">
        <ele>1427.8</ele>
      </trkpt>
      <trkpt lat="42.4973101" lon="2.0270062">
        <ele>1432.2</ele>
      </trkpt>
      <trkpt lat="42.4975725" lon="2.0264979">
        <ele>1436.5</ele>
      </trkpt>
      <trkpt lat="42.4978349" lon="2.0259896">
        <ele>1440.9</ele>
      </trkpt>
      <trkpt lat="42.4980972" lon="2.0254813">
        <ele>1445.2</ele>
      </trkpt>
      <trkpt lat="42.4983596" lon="2.0249730">
        <ele>1449.6</ele>
      </trkpt>
      <trkpt lat="42.4986220" lon="2.0244647">
        <ele>1453.9</ele>
      </trkpt>
      <trkpt lat="42.4988844" lon="2.0239565">
        <ele>1458.3</ele>
      </trkpt>
      <trkpt lat="42.4991467" lon="2.0234482">
        <ele>1462.6</ele>
      </trkpt>
      <trkpt lat="42.4994091" lon="2.0229399">
        <ele>1467.0</ele>
      </trkpt>
      <trkpt lat="42.4996715" lon="2.0224316">
        <ele>1471.3</ele>
      </trkpt>
      <trkpt lat="42.4999339" lon="2.0219233">
        <ele>1475.7</ele>
      </trkpt>
      <trkpt lat="42.5001962" lon="2.0214150">
        <ele>1480.0</ele>
      </trkpt>
      <trkpt lat="42.5005283" lon="2.0209646">
        <ele>1485.0</ele>
      </trkpt>
      <trkpt lat="42.5008604" lon="2.0205141">
        <ele>1490.0</ele>
      </trkpt>
      <trkpt lat="42.5011925" lon="2.0200636">
        <ele>1495.0</ele>
      </trkpt>
      <trkpt lat="42.5015245" lon="2.0196131">
        <ele>1500.0</ele>
      </trkpt>
      <trkpt lat="42.5018566" lon="2.0191627">
        <ele>1505.0</ele>
      </trkpt>
      <trkpt lat="42.5021887" lon="2.0187122">
        <ele>1510.0</ele>
      </trkpt>
      <trkpt lat="42.5025207" lon="2.0182617">
        <ele>1515.0</ele>
      </trkpt>
      <trkpt lat="42.5028528" lon="2.0178113">
        <ele>1520.0</ele>
      </trkpt>
      <trkpt lat="42.5031849" lon="2.0173608">
        <ele>1525.0</ele>
      </trkpt>
      <trkpt lat="42.5035170" lon="2.0169103">
        <ele>1530.0</ele>
      </trkpt>
      <trkpt lat="42.5038490" lon="2.0164598">
        <ele>1535.0</ele>
      </trkpt>
      <trkpt lat="42.5041811" lon="2.0160094">
        <ele>1540.0</ele>
      </trkpt>
      <trkpt lat="42.5045132" lon="2.0155589">
        <ele>1545.0</ele>
      </trkpt>
      <trkpt lat="42.5048453" lon="2.0151084">
        <ele>1550.0</ele>
      </trkpt>
      <trkpt lat="42.5051773" lon="2.0146580">
        <ele>1555.0</ele>
      </trkpt>
      <trkpt lat="42.5055094" lon="2.0142075">
        <ele>1560.0</ele>
      </trkpt>
      <trkpt lat="42.5058415" lon="2.0137570">
        <ele>1565.0</ele>
      </trkpt>
      <trkpt lat="42.5061736" lon="2.0133065">
        <ele>1570.0</ele>
      </trkpt>
      <trkpt lat="42.5065727" lon="2.0129939">
        <ele>1575.6</ele>
      </trkpt>
      <trkpt lat="42.5069719" lon="2.0126813">
        <ele>1581.2</ele>
      </trkpt>
      <trkpt lat="42.5073710" lon="2.0123686">
        <ele>1586.9</ele>
      </trkpt>
      <trkpt lat="42.5077701" lon="2.0120560">
        <ele>1592.5</ele>
      </trkpt>
      <trkpt lat="42.5081693" lon="2.0117434">
        <ele>1598.1</ele>
      </trkpt>
      <trkpt lat="42.5085684" lon="2.0114307">
        <ele>1603.8</ele>
      </trkpt>
      <trkpt lat="42.5089676" lon="2.0111181">
        <ele>1609.4</ele>
      </trkpt>
      <trkpt lat="42.5093667" lon="2.0108055">
        <ele>1615.0</ele>
      </trkpt>
      <trkpt lat="42.5097659" lon="2.0104928">
        <ele>1620.6</ele>
      </trkpt>
      <trkpt lat="42.5101650" lon="2.0101802">
        <ele>1626.2</ele>
      </trkpt>
      <trkpt lat="42.5105642" lon="2.0098676">
        <ele>1631.9</ele>
      </trkpt>
      <trkpt lat="42.5109633" lon="2.0095549">
        <ele>1637.5</ele>
      </trkpt>
      <trkpt lat="42.5113625" lon="2.0092423">
        <ele>1643.1</ele>
      </trkpt>
      <trkpt lat="42.5117616" lon="2.0089297">
        <ele>1648.8</ele>
      </trkpt>
      <trkpt lat="42.5121608" lon="2.0086170">
        <ele>1654.4</ele>
      </trkpt>
      <trkpt lat="42.5125599" lon="2.0083044">
        <ele>1660.0</ele>
      </trkpt>
      <trkpt lat="42.5128489" lon="2.0078371">
        <ele>1664.8</ele>
      </trkpt>
      <trkpt lat="42.5131379" lon="2.0073697">
        <ele>1669.5</ele>
      </trkpt>
      <trkpt lat="42.5134269" lon="2.0069024">
        <ele>1674.3</ele>
      </trkpt>
      <trkpt lat="42.5137160" lon="2.0064350">
        <ele>1679.0</ele>
      </trkpt>
      <trkpt lat="42.5140050" lon="2.0059677">
        <ele>1683.8</ele>
      </trkpt>
      <trkpt lat="42.5142940" lon="2.0055003">
        <ele>1688.6</ele>
      </trkpt>
      <trkpt lat="42.5145830" lon="2.0050330">
        <ele>1693.3</ele>
      </trkpt>
      <trkpt lat="42.5148720" lon="2.0045656">
        <ele>1698.1</ele>
      </trkpt>
      <trkpt lat="42.5151610" lon="2.0040983">
        <ele>1702.9</ele>
      </trkpt>
      <trkpt lat="42.5154501" lon="2.0036310">
        <ele>1707.6</ele>
      </trkpt>
      <trkpt lat="42.5157391" lon="2.0031636">
        <ele>1712.4</ele>
      </trkpt>
      <trkpt lat="42.5160281" lon="2.0026963">
        <ele>1717.1</ele>
      </trkpt>
      <trkpt lat="42.5163171" lon="2.0022289">
        <ele>1721.9</ele>
      </trkpt>
      <trkpt lat="42.5166061" lon="2.0017616">
        <ele>1726.7</ele>
      </trkpt>
      <trkpt lat="42.5168951" lon="2.0012942">
        <ele>1731.4</ele>
      </trkpt>
      <trkpt lat="42.5171842" lon="2.0008269">
        <ele>1736.2</ele>
      </trkpt>
      <trkpt lat="42.5174732" lon="2.0003595">
        <ele>1741.0</ele>
      </trkpt>
      <trkpt lat="42.5177622" lon="1.9998922">
        <ele>1745.7</ele>
      </trkpt>
      <trkpt lat="42.5180512" lon="1.9994248">
        <ele>1750.5</ele>
      </trkpt>
      <trkpt lat="42.5183402" lon="1.9989575">
        <ele>1755.2</ele>
      </trkpt>
      <trkpt lat="42.5186292" lon="1.9984902">
        <ele>1760.0</ele>
      </trkpt>
      <trkpt lat="42.5189976" lon="1.9981402">
        <ele>1765.7</ele>
      </trkpt>
      <trkpt lat="42.5193659" lon="1.9977903">
        <ele>1771.4</ele>
      </trkpt>
      <trkpt lat="42.5197342" lon="1.9974403">
        <ele>1777.1</ele>
      </trkpt>
      <trkpt lat="42.5201026" lon="1.9970903">
        <ele>1782.9</ele>
      </trkpt>
      <trkpt lat="42.5204709" lon="1.9967404">
        <ele>1788.6</ele>
      </trkpt>
      <trkpt lat="42.5208392" lon="1.9963904">
        <ele>1794.3</ele>
      </trkpt>
      <trkpt lat="42.5212076" lon="1.9960405">
        <ele>1800.0</ele>
      </trkpt>
      <trkpt lat="42.5215759" lon="1.9956905">
        <ele>1805.7</ele>
      </trkpt>
      <trkpt lat="42.5219442" lon="1.9953406">
        <ele>1811.4</ele>
      </trkpt>
      <trkpt lat="42.5223126" lon="1.9949906">
        <ele>1817.1</ele>
      </trkpt>
      <trkpt lat="42.5226809" lon="1.9946407">
        <ele>1822.9</ele>
      </trkpt>
      <trkpt lat="42.5230492" lon="1.9942907">
        <ele>1828.6</ele>
      </trkpt>
      <trkpt lat="42.5234176" lon="1.9939408">
        <ele>1834.3</ele>
      </trkpt>
      <trkpt lat="42.5237859" lon="1.9935908">
        <ele>1840.0</ele>
      </trkpt>
      <trkpt lat="42.5242315" lon="1.9933707">
        <ele>1845.5</ele>
      </trkpt>
      <trkpt lat="42.5246771" lon="1.9931507">
        <ele>1850.9</ele>
      </trkpt>
      <trkpt lat="42.5251227" lon="1.9929306">
        <ele>1856.4</ele>
      </trkpt>
      <trkpt lat="42.5255683" lon="1.9927105">
        <ele>1861.8</ele>
      </trkpt>
      <trkpt lat="42.5260139" lon="1.9924904">
        <ele>1867.3</ele>
      </trkpt>
      <trkpt lat="42.5264594" lon="1.9922704">
        <ele>1872.7</ele>
      </trkpt>
      <trkpt lat="42.5269050" lon="1.9920503">
        <ele>1878.2</ele>
      </trkpt>
      <trkpt lat="42.5273506" lon="1.9918302">
        <ele>1883.6</ele>
      </trkpt>
      <trkpt lat="42.5277962" lon="1.9916101">
        <ele>1889.1</ele>
      </trkpt>
      <trkpt lat="42.5282418" lon="1.9913901">
        <ele>1894.5</ele>
      </trkpt>
      <trkpt lat="42.5286874" lon="1.9911700">
        <ele>1900.0</ele>
      </trkpt>
      <trkpt lat="42.5291353" lon="1.9911168">
        <ele>1904.3</ele>
      </trkpt>
      <trkpt lat="42.5295833" lon="1.9910636">
        <ele>1908.6</ele>
      </trkpt>
      <trkpt lat="42.5300312" lon="1.9910104">
        <ele>1912.9</ele>
      </trkpt>
      <trkpt lat="42.5304792" lon="1.9909573">
        <ele>1917.1</ele>
      </trkpt>
      <trkpt lat="42.5309271" lon="1.9909041">
        <ele>1921.4</ele>
      </trkpt>
      <trkpt lat="42.5313751" lon="1.9908509">
        <ele>1925.7</ele>
      </trkpt>
      <trkpt lat="42.5318230" lon="1.9907977">
        <ele>1930.0</ele>
      </trkpt>
      <trkpt lat="42.5319054" lon="1.9914314">
        <ele>1924.5</ele>
      </trkpt>
      <trkpt lat="42.5319877" lon="1.9920651">
        <ele>1919.1</ele>
      </trkpt>
      <trkpt lat="42.5320700" lon="1.9926989">
        <ele>1913.6</ele>
      </trkpt>
      <trkpt lat="42.5321523" lon="1.9933326">
        <ele>1908.2</ele>
      </trkpt>
      <trkpt lat="42.5322346" lon="1.9939663">
        <ele>1902.7</ele>
      </trkpt>
      <trkpt lat="42.5323170" lon="1.9946000">
        <ele>1897.3</ele>
      </trkpt>
      <trkpt lat="42.5323993" lon="1.9952338">
        <ele>1891.8</ele>
      </trkpt>
      <trkpt lat="42.5324816" lon="1.9958675">
        <ele>1886.4</ele>
      </trkpt>
      <trkpt lat="42.5325639" lon="1.9965012">
        <ele>1880.9</ele>
      </trkpt>
      <trkpt lat="42.5326463" lon="1.9971349">
        <ele>1875.5</ele>
      </trkpt>
      <trkpt lat="42.5327286" lon="1.9977686">
        <ele>1870.0</ele>
      </trkpt>
      <trkpt lat="42.5325709" lon="1.9983564">
        <ele>1864.4</ele>
      </trkpt>
      <trkpt lat="42.5324133" lon="1.9989441">
        <ele>1858.8</ele>
      </trkpt>
      <trkpt lat="42.5322556" lon="1.9995318">
        <ele>1853.1</ele>
      </trkpt>
      <trkpt lat="42.5320979" lon="2.0001195">
        <ele>1847.5</ele>
      </trkpt>
      <trkpt lat="42.5319403" lon="2.0007073">
        <ele>1841.9</ele>
      </trkpt>
      <trkpt lat="42.5317826" lon="2.0012950">
        <ele>1836.2</ele>
      </trkpt>
      <trkpt lat="42.5316249" lon="2.0018827">
        <ele>1830.6</ele>
      </trkpt>
      <trkpt lat="42.5314673" lon="2.0024704">
        <ele>1825.0</ele>
      </trkpt>
      <trkpt lat="42.5313096" lon="2.0030582">
        <ele>1819.4</ele>
      </trkpt>
      <trkpt lat="42.5311520" lon="2.0036459">
        <ele>1813.8</ele>
      </trkpt>
      <trkpt lat="42.5309943" lon="2.0042336">
        <ele>1808.1</ele>
      </trkpt>
      <trkpt lat="42.5308366" lon="2.0048213">
        <ele>1802.5</ele>
      </trkpt>
      <trkpt lat="42.5306790" lon="2.0054091">
        <ele>1796.9</ele>
      </trkpt>
      <trkpt lat="42.5305213" lon="2.0059968">
        <ele>1791.2</ele>
      </trkpt>
      <trkpt lat="42.5303636" lon="2.0065845">
        <ele>1785.6</ele>
      </trkpt>
      <trkpt lat="42.5302060" lon="2.0071722">
        <ele>1780.0</ele>
      </trkpt>
      <trkpt lat="42.5299352" lon="2.0076970">
        <ele>1774.5</ele>
      </trkpt>
      <trkpt lat="42.5296643" lon="2.0082218">
        <ele>1769.0</ele>
      </trkpt>
      <trkpt lat="42.5293935" lon="2.0087466">
        <ele>1763.5</ele>
      </trkpt>
      <trkpt lat="42.5291226" lon="2.0092714">
        <ele>1758.0</ele>
      </trkpt>
      <trkpt lat="42.5288518" lon="2.0097961">
        <ele>1752.5</ele>
      </trkpt>
      <trkpt lat="42.5285810" lon="2.0103209">
        <ele>1747.0</ele>
      </trkpt>
      <trkpt lat="42.5283101" lon="2.0108457">
        <ele>1741.5</ele>
      </trkpt>
      <trkpt lat="42.5280393" lon="2.0113705">
        <ele>1736.0</ele>
      </trkpt>
      <trkpt lat="42.5277685" lon="2.0118953">
        <ele>1730.5</ele>
      </trkpt>
      <trkpt lat="42.5274976" lon="2.0124201">
        <ele>1725.0</ele>
      </trkpt>
      <trkpt lat="42.5272268" lon="2.0129448">
        <ele>1719.5</ele>
      </trkpt>
      <trkpt lat="42.5269560" lon="2.0134696">
        <ele>1714.0</ele>
      </trkpt>
      <trkpt lat="42.5266851" lon="2.0139944">
        <ele>1708.5</ele>
      </trkpt>
      <trkpt lat="42.5264143" lon="2.0145192">
        <ele>1703.0</ele>
      </trkpt>
      <trkpt lat="42.5261435" lon="2.0150440">
        <ele>1697.5</ele>
      </trkpt>
      <trkpt lat="42.5258726" lon="2.0155688">
        <ele>1692.0</ele>
      </trkpt>
      <trkpt lat="42.5256018" lon="2.0160935">
        <ele>1686.5</ele>
      </trkpt>
      <trkpt lat="42.5253310" lon="2.0166183">
        <ele>1681.0</ele>
      </trkpt>
      <trkpt lat="42.5250601" lon="2.0171431">
        <ele>1675.5</ele>
      </trkpt>
      <trkpt lat="42.5247893" lon="2.0176679">
        <ele>1670.0</ele>
      </trkpt>
      <trkpt lat="42.5244572" lon="2.0181185">
        <ele>1663.9</ele>
      </trkpt>
      <trkpt lat="42.5241251" lon="2.0185690">
        <ele>1657.8</ele>
      </trkpt>
      <trkpt lat="42.5237930" lon="2.0190196">
        <ele>1651.7</ele>
      </trkpt>
      <trkpt lat="42.5234609" lon="2.0194702">
        <ele>1645.6</ele>
      </trkpt>
      <trkpt lat="42.5231288" lon="2.0199207">
        <ele>1639.4</ele>
      </trkpt>
      <trkpt lat="42.5227967" lon="2.0203713">
        <ele>1633.3</ele>
      </trkpt>
      <trkpt lat="42.5224646" lon="2.0208218">
        <ele>1627.2</ele>
      </trkpt>
      <trkpt lat="42.5221325" lon="2.0212724">
        <ele>1621.1</ele>
      </trkpt>
      <trkpt lat="42.5218003" lon="2.0217230">
        <ele>1615.0</ele>
      </trkpt>
      <trkpt lat="42.5214682" lon="2.0221735">
        <ele>1608.9</ele>
      </trkpt>
      <trkpt lat="42.5211361" lon="2.0226241">
        <ele>1602.8</ele>
      </trkpt>
      <trkpt lat="42.5208040" lon="2.0230747">
        <ele>1596.7</ele>
      </trkpt>
      <trkpt lat="42.5204719" lon="2.0235252">
        <ele>1590.6</ele>
      </trkpt>
      <trkpt lat="42.5201398" lon="2.0239758">
        <ele>1584.4</ele>
      </trkpt>
      <trkpt lat="42.5198077" lon="2.0244263">
        <ele>1578.3</ele>
      </trkpt>
      <trkpt lat="42.5194756" lon="2.0248769">
        <ele>1572.2</ele>
      </trkpt>
      <trkpt lat="42.5191435" lon="2.0253275">
        <ele>1566.1</ele>
      </trkpt>
      <trkpt lat="42.5188114" lon="2.0257780">
        <ele>1560.0</ele>
      </trkpt>
      <trkpt lat="42.5184152" lon="2.0260883">
        <ele>1554.8</ele>
      </trkpt>
      <trkpt lat="42.5180190" lon="2.0263986">
        <ele>1549.6</ele>
      </trkpt>
      <trkpt lat="42.5176228" lon="2.0267089">
        <ele>1544.3</ele>
      </trkpt>
      <trkpt lat="42.5172266" lon="2.0270192">
        <ele>1539.1</ele>
      </trkpt>
      <trkpt lat="42.5168304" lon="2.0273295">
        <ele>1533.9</ele>
      </trkpt>
      <trkpt lat="42.5164342" lon="2.0276398">
        <ele>1528.7</ele>
      </trkpt>
      <trkpt lat="42.5160380" lon="2.0279501">
        <ele>1523.5</ele>
      </trkpt>
      <trkpt lat="42.5156418" lon="2.0282604">
        <ele>1518.3</ele>
      </trkpt>
      <trkpt lat="42.5152456" lon="2.0285707">
        <ele>1513.0</ele>
      </trkpt>
      <trkpt lat="42.5148494" lon="2.0288810">
        <ele>1507.8</ele>
      </trkpt>
      <trkpt lat="42.5144532" lon="2.0291913">
        <ele>1502.6</ele>
      </trkpt>
      <trkpt lat="42.5140570" lon="2.0295016">
        <ele>1497.4</ele>
      </trkpt>
      <trkpt lat="42.5136608" lon="2.0298119">
        <ele>1492.2</ele>
      </trkpt>
      <trkpt lat="42.5132646" lon="2.0301222">
        <ele>1487.0</ele>
      </trkpt>
      <trkpt lat="42.5128684" lon="2.0304325">
        <ele>1481.7</ele>
      </trkpt>
      <trkpt lat="42.5124722" lon="2.0307428">
        <ele>1476.5</ele>
      </trkpt>
      <trkpt lat="42.5120760" lon="2.0310531">
        <ele>1471.3</ele>
      </trkpt>
      <trkpt lat="42.5116798" lon="2.0313634">
        <ele>1466.1</ele>
      </trkpt>
      <trkpt lat="42.5112836" lon="2.0316737">
        <ele>1460.9</ele>
      </trkpt>
      <trkpt lat="42.5108874" lon="2.0319840">
        <ele>1455.7</ele>
      </trkpt>
      <trkpt lat="42.5104912" lon="2.0322943">
        <ele>1450.4</ele>
      </trkpt>
      <trkpt lat="42.5100950" lon="2.0326046">
        <ele>1445.2</ele>
      </trkpt>
      <trkpt lat="42.5096988" lon="2.0329149">
        <ele>1440.0</ele>
      </trkpt>
      <trkpt lat="42.5092551" lon="2.0331339">
        <ele>1435.0</ele>
      </trkpt>
      <trkpt lat="42.5088115" lon="2.0333529">
        <ele>1430.0</ele>
      </trkpt>
      <trkpt lat="42.5083678" lon="2.0335720">
        <ele>1425.0</ele>
      </trkpt>
      <trkpt lat="42.5079241" lon="2.0337910">
        <ele>1420.0</ele>
      </trkpt>
      <trkpt lat="42.5074804" lon="2.0340100">
        <ele>1415.0</ele>
      </trkpt>
      <trkpt lat="42.5070368" lon="2.0342291">
        <ele>1410.0</ele>
      </trkpt>
      <trkpt lat="42.5065931" lon="2.0344481">
        <ele>1405.0</ele>
      </trkpt>
      <trkpt lat="42.5061494" lon="2.0346671">
        <ele>1400.0</ele>
      </trkpt>
      <trkpt lat="42.5057057" lon="2.0348861">
        <ele>1395.0</ele>
      </trkpt>
      <trkpt lat="42.5052621" lon="2.0351052">
        <ele>1390.0</ele>
      </trkpt>
      <trkpt lat="42.5048184" lon="2.0353242">
        <ele>1385.0</ele>
      </trkpt>
      <trkpt lat="42.5043747" lon="2.0355432">
        <ele>1380.0</ele>
      </trkpt>
      <trkpt lat="42.5039310" lon="2.0357623">
        <ele>1375.0</ele>
      </trkpt>
      <trkpt lat="42.5034874" lon="2.0359813">
        <ele>1370.0</ele>
      </trkpt>
      <trkpt lat="42.5030437" lon="2.0362003">
        <ele>1365.0</ele>
      </trkpt>
      <trkpt lat="42.5026000" lon="2.0364193">
        <ele>1360.0</ele>
      </trkpt>
      <trkpt lat="42.5021563" lon="2.0366384">
        <ele>1355.0</ele>
      </trkpt>
      <trkpt lat="42.5017127" lon="2.0368574">
        <ele>1350.0</ele>
      </trkpt>
      <trkpt lat="42.5012690" lon="2.0370764">
        <ele>1345.0</ele>
      </trkpt>
      <trkpt lat="42.5008253" lon="2.0372955">
        <ele>1340.0</ele>
      </trkpt>
      <trkpt lat="42.5003714" lon="2.0374040">
        <ele>1335.9</ele>
      </trkpt>
      <trkpt lat="42.4999175" lon="2.0375126">
        <ele>1331.9</ele>
      </trkpt>
      <trkpt lat="42.4994636" lon="2.0376211">
        <ele>1327.8</ele>
      </trkpt>
      <trkpt lat="42.4990097" lon="2.0377296">
        <ele>1323.8</ele>
      </trkpt>
      <trkpt lat="42.4985558" lon="2.0378382">
        <ele>1319.7</ele>
      </trkpt>
      <trkpt lat="42.4981019" lon="2.0379467">
        <ele>1315.6</ele>
      </trkpt>
      <trkpt lat="42.4976480" lon="2.0380553">
        <ele>1311.6</ele>
      </trkpt>
      <trkpt lat="42.4971941" lon="2.0381638">
        <ele>1307.5</ele>
      </trkpt>
      <trkpt lat="42.4967402" lon="2.0382724">
        <ele>1303.4</ele>
      </trkpt>
      <trkpt lat="42.4962863" lon="2.0383809">
        <ele>1299.4</ele>
      </trkpt>
      <trkpt lat="42.4958324" lon="2.0384894">
        <ele>1295.3</ele>
      </trkpt>
      <trkpt lat="42.4953785" lon="2.0385980">
        <ele>1291.2</ele>
      </trkpt>
      <trkpt lat="42.4949246" lon="2.0387065">
        <ele>1287.2</ele>
      </trkpt>
      <trkpt lat="42.4944707" lon="2.0388151">
        <ele>1283.1</ele>
      </trkpt>
      <trkpt lat="42.4940168" lon="2.0389236">
        <ele>1279.1</ele>
      </trkpt>
      <trkpt lat="42.4935629" lon="2.0390322">
        <ele>1275.0</ele>
      </trkpt>
      <trkpt lat="42.4930887" lon="2.0390322">
        <ele>1272.3</ele>
      </trkpt>
      <trkpt lat="42.4926145" lon="2.0390322">
        <ele>1269.5</ele>
      </trkpt>
      <trkpt lat="42.4921403" lon="2.0390322">
        <ele>1266.8</ele>
      </trkpt>
      <trkpt lat="42.4916661" lon="2.0390322">
        <ele>1264.1</ele>
      </trkpt>
      <trkpt lat="42.4911920" lon="2.0390322">
        <ele>1261.4</ele>
      </trkpt>
      <trkpt lat="42.4907178" lon="2.0390322">
        <ele>1258.6</ele>
      </trkpt>
      <trkpt lat="42.4902436" lon="2.0390322">
        <ele>1255.9</ele>
      </trkpt>
      <trkpt lat="42.4897694" lon="2.0390322">
        <ele>1253.2</ele>
      </trkpt>
      <trkpt lat="42.4892952" lon="2.0390322">
        <ele>1250.5</ele>
      </trkpt>
      <trkpt lat="42.4888210" lon="2.0390322">
        <ele>1247.7</ele>
      </trkpt>
      <trkpt lat="42.4883468" lon="2.0390322">
        <ele>1245.0</ele>
      </trkpt>
      <trkpt lat="42.4878302" lon="2.0389086">
        <ele>1242.5</ele>
      </trkpt>
      <trkpt lat="42.4873136" lon="2.0387851">
        <ele>1240.0</ele>
      </trkpt>
      <trkpt lat="42.4867969" lon="2.0386616">
        <ele>1237.5</ele>
      </trkpt>
      <trkpt lat="42.4862803" lon="2.0385380">
        <ele>1235.0</ele>
      </trkpt>
      <trkpt lat="42.4857637" lon="2.0384145">
        <ele>1232.5</ele>
      </trkpt>
      <trkpt lat="42.4852470" lon="2.0382910">
        <ele>1230.0</ele>
      </trkpt>
    </trkseg>
  </trk>
</gpx>
