<?xml version="1.0" encoding="UTF-8"?>
<gpx xmlns="http://www.topografix.com/GPX/1/1" xmlns:xsi="http://www.w3.org/2001/XMLSchema-instance" version="1.1" creator="Strava API Assistant" xsi:schemaLocation="http://www.topografix.com/GPX/1/1 http://www.topografix.com/GPX/1/1/gpx.xsd">
  <metadata>
    <name>Ruta Montseny - Turó de l'Home 15km 700D+</name>
    <desc>Circular des de Sant Marçal fins al Turó de l'Home. 15km aprox, 700m D+.</desc>
    <time>2026-06-21T07:14:29Z</time>
  </metadata>
  <trk>
    <name>Montseny - Turó de l'Home</name>
    <type>trail running</type>
    <trkseg>
      <trkpt lat="41.7834000" lon="2.4021000">
        <ele>920.0</ele>
      </trkpt>
      <trkpt lat="41.7838290" lon="2.4023683">
        <ele>923.4</ele>
      </trkpt>
      <trkpt lat="41.7842579" lon="2.4026366">
        <ele>926.8</ele>
      </trkpt>
      <trkpt lat="41.7846869" lon="2.4029049">
        <ele>930.3</ele>
      </trkpt>
      <trkpt lat="41.7851159" lon="2.4031732">
        <ele>933.7</ele>
      </trkpt>
      <trkpt lat="41.7855449" lon="2.4034415">
        <ele>937.1</ele>
      </trkpt>
      <trkpt lat="41.7859738" lon="2.4037098">
        <ele>940.5</ele>
      </trkpt>
      <trkpt lat="41.7864028" lon="2.4039781">
        <ele>943.9</ele>
      </trkpt>
      <trkpt lat="41.7868318" lon="2.4042464">
        <ele>947.4</ele>
      </trkpt>
      <trkpt lat="41.7872608" lon="2.4045147">
        <ele>950.8</ele>
      </trkpt>
      <trkpt lat="41.7876897" lon="2.4047830">
        <ele>954.2</ele>
      </trkpt>
      <trkpt lat="41.7881187" lon="2.4050513">
        <ele>957.6</ele>
      </trkpt>
      <trkpt lat="41.7885477" lon="2.4053196">
        <ele>961.1</ele>
      </trkpt>
      <trkpt lat="41.7889767" lon="2.4055879">
        <ele>964.5</ele>
      </trkpt>
      <trkpt lat="41.7894056" lon="2.4058562">
        <ele>967.9</ele>
      </trkpt>
      <trkpt lat="41.7898346" lon="2.4061245">
        <ele>971.3</ele>
      </trkpt>
      <trkpt lat="41.7902636" lon="2.4063928">
        <ele>974.7</ele>
      </trkpt>
      <trkpt lat="41.7906926" lon="2.4066611">
        <ele>978.2</ele>
      </trkpt>
      <trkpt lat="41.7911215" lon="2.4069294">
        <ele>981.6</ele>
      </trkpt>
      <trkpt lat="41.7915505" lon="2.4071977">
        <ele>985.0</ele>
      </trkpt>
      <trkpt lat="41.7919848" lon="2.4073538">
        <ele>989.4</ele>
      </trkpt>
      <trkpt lat="41.7924192" lon="2.4075099">
        <ele>993.9</ele>
      </trkpt>
      <trkpt lat="41.7928535" lon="2.4076660">
        <ele>998.3</ele>
      </trkpt>
      <trkpt lat="41.7932879" lon="2.4078221">
        <ele>1002.8</ele>
      </trkpt>
      <trkpt lat="41.7937222" lon="2.4079783">
        <ele>1007.2</ele>
      </trkpt>
      <trkpt lat="41.7941565" lon="2.4081344">
        <ele>1011.7</ele>
      </trkpt>
      <trkpt lat="41.7945909" lon="2.4082905">
        <ele>1016.1</ele>
      </trkpt>
      <trkpt lat="41.7950252" lon="2.4084466">
        <ele>1020.6</ele>
      </trkpt>
      <trkpt lat="41.7954595" lon="2.4086027">
        <ele>1025.0</ele>
      </trkpt>
      <trkpt lat="41.7958939" lon="2.4087588">
        <ele>1029.4</ele>
      </trkpt>
      <trkpt lat="41.7963282" lon="2.4089149">
        <ele>1033.9</ele>
      </trkpt>
      <trkpt lat="41.7967626" lon="2.4090711">
        <ele>1038.3</ele>
      </trkpt>
      <trkpt lat="41.7971969" lon="2.4092272">
        <ele>1042.8</ele>
      </trkpt>
      <trkpt lat="41.7976312" lon="2.4093833">
        <ele>1047.2</ele>
      </trkpt>
      <trkpt lat="41.7980656" lon="2.4095394">
        <ele>1051.7</ele>
      </trkpt>
      <trkpt lat="41.7984999" lon="2.4096955">
        <ele>1056.1</ele>
      </trkpt>
      <trkpt lat="41.7989342" lon="2.4098516">
        <ele>1060.6</ele>
      </trkpt>
      <trkpt lat="41.7993686" lon="2.4100077">
        <ele>1065.0</ele>
      </trkpt>
      <trkpt lat="41.7997580" lon="2.4103094">
        <ele>1070.0</ele>
      </trkpt>
      <trkpt lat="41.8001474" lon="2.4106110">
        <ele>1075.0</ele>
      </trkpt>
      <trkpt lat="41.8005368" lon="2.4109126">
        <ele>1080.0</ele>
      </trkpt>
      <trkpt lat="41.8009262" lon="2.4112143">
        <ele>1085.0</ele>
      </trkpt>
      <trkpt lat="41.8013156" lon="2.4115159">
        <ele>1090.0</ele>
      </trkpt>
      <trkpt lat="41.8017050" lon="2.4118175">
        <ele>1095.0</ele>
      </trkpt>
      <trkpt lat="41.8020944" lon="2.4121192">
        <ele>1100.0</ele>
      </trkpt>
      <trkpt lat="41.8024838" lon="2.4124208">
        <ele>1105.0</ele>
      </trkpt>
      <trkpt lat="41.8028733" lon="2.4127224">
        <ele>1110.0</ele>
      </trkpt>
      <trkpt lat="41.8032627" lon="2.4130241">
        <ele>1115.0</ele>
      </trkpt>
      <trkpt lat="41.8036521" lon="2.4133257">
        <ele>1120.0</ele>
      </trkpt>
      <trkpt lat="41.8040415" lon="2.4136273">
        <ele>1125.0</ele>
      </trkpt>
      <trkpt lat="41.8044309" lon="2.4139290">
        <ele>1130.0</ele>
      </trkpt>
      <trkpt lat="41.8048203" lon="2.4142306">
        <ele>1135.0</ele>
      </trkpt>
      <trkpt lat="41.8052097" lon="2.4145323">
        <ele>1140.0</ele>
      </trkpt>
      <trkpt lat="41.8055991" lon="2.4148339">
        <ele>1145.0</ele>
      </trkpt>
      <trkpt lat="41.8059885" lon="2.4151355">
        <ele>1150.0</ele>
      </trkpt>
      <trkpt lat="41.8063779" lon="2.4154372">
        <ele>1155.0</ele>
      </trkpt>
      <trkpt lat="41.8067673" lon="2.4157388">
        <ele>1160.0</ele>
      </trkpt>
      <trkpt lat="41.8071567" lon="2.4160404">
        <ele>1165.0</ele>
      </trkpt>
      <trkpt lat="41.8075461" lon="2.4163421">
        <ele>1170.0</ele>
      </trkpt>
      <trkpt lat="41.8079356" lon="2.4166437">
        <ele>1175.0</ele>
      </trkpt>
      <trkpt lat="41.8083250" lon="2.4169453">
        <ele>1180.0</ele>
      </trkpt>
      <trkpt lat="41.8087144" lon="2.4172470">
        <ele>1185.0</ele>
      </trkpt>
      <trkpt lat="41.8091369" lon="2.4174533">
        <ele>1190.6</ele>
      </trkpt>
      <trkpt lat="41.8095595" lon="2.4176597">
        <ele>1196.1</ele>
      </trkpt>
      <trkpt lat="41.8099820" lon="2.4178660">
        <ele>1201.7</ele>
      </trkpt>
      <trkpt lat="41.8104045" lon="2.4180724">
        <ele>1207.2</ele>
      </trkpt>
      <trkpt lat="41.8108271" lon="2.4182787">
        <ele>1212.8</ele>
      </trkpt>
      <trkpt lat="41.8112496" lon="2.4184851">
        <ele>1218.3</ele>
      </trkpt>
      <trkpt lat="41.8116722" lon="2.4186914">
        <ele>1223.9</ele>
      </trkpt>
      <trkpt lat="41.8120947" lon="2.4188978">
        <ele>1229.4</ele>
      </trkpt>
      <trkpt lat="41.8125172" lon="2.4191041">
        <ele>1235.0</ele>
      </trkpt>
      <trkpt lat="41.8129398" lon="2.4193105">
        <ele>1240.6</ele>
      </trkpt>
      <trkpt lat="41.8133623" lon="2.4195169">
        <ele>1246.1</ele>
      </trkpt>
      <trkpt lat="41.8137848" lon="2.4197232">
        <ele>1251.7</ele>
      </trkpt>
      <trkpt lat="41.8142074" lon="2.4199296">
        <ele>1257.2</ele>
      </trkpt>
      <trkpt lat="41.8146299" lon="2.4201359">
        <ele>1262.8</ele>
      </trkpt>
      <trkpt lat="41.8150525" lon="2.4203423">
        <ele>1268.3</ele>
      </trkpt>
      <trkpt lat="41.8154750" lon="2.4205486">
        <ele>1273.9</ele>
      </trkpt>
      <trkpt lat="41.8158975" lon="2.4207550">
        <ele>1279.4</ele>
      </trkpt>
      <trkpt lat="41.8163201" lon="2.4209613">
        <ele>1285.0</ele>
      </trkpt>
      <trkpt lat="41.8167629" lon="2.4210661">
        <ele>1291.4</ele>
      </trkpt>
      <trkpt lat="41.8172057" lon="2.4211709">
        <ele>1297.9</ele>
      </trkpt>
      <trkpt lat="41.8176486" lon="2.4212757">
        <ele>1304.3</ele>
      </trkpt>
      <trkpt lat="41.8180914" lon="2.4213805">
        <ele>1310.7</ele>
      </trkpt>
      <trkpt lat="41.8185342" lon="2.4214852">
        <ele>1317.1</ele>
      </trkpt>
      <trkpt lat="41.8189771" lon="2.4215900">
        <ele>1323.6</ele>
      </trkpt>
      <trkpt lat="41.8194199" lon="2.4216948">
        <ele>1330.0</ele>
      </trkpt>
      <trkpt lat="41.8198627" lon="2.4217996">
        <ele>1336.4</ele>
      </trkpt>
      <trkpt lat="41.8203055" lon="2.4219043">
        <ele>1342.9</ele>
      </trkpt>
      <trkpt lat="41.8207484" lon="2.4220091">
        <ele>1349.3</ele>
      </trkpt>
      <trkpt lat="41.8211912" lon="2.4221139">
        <ele>1355.7</ele>
      </trkpt>
      <trkpt lat="41.8216340" lon="2.4222187">
        <ele>1362.1</ele>
      </trkpt>
      <trkpt lat="41.8220769" lon="2.4223235">
        <ele>1368.6</ele>
      </trkpt>
      <trkpt lat="41.8225197" lon="2.4224282">
        <ele>1375.0</ele>
      </trkpt>
      <trkpt lat="41.8229056" lon="2.4227909">
        <ele>1379.3</ele>
      </trkpt>
      <trkpt lat="41.8232914" lon="2.4231535">
        <ele>1383.6</ele>
      </trkpt>
      <trkpt lat="41.8236773" lon="2.4235161">
        <ele>1387.9</ele>
      </trkpt>
      <trkpt lat="41.8240632" lon="2.4238787">
        <ele>1392.1</ele>
      </trkpt>
      <trkpt lat="41.8244490" lon="2.4242414">
        <ele>1396.4</ele>
      </trkpt>
      <trkpt lat="41.8248349" lon="2.4246040">
        <ele>1400.7</ele>
      </trkpt>
      <trkpt lat="41.8252208" lon="2.4249666">
        <ele>1405.0</ele>
      </trkpt>
      <trkpt lat="41.8256066" lon="2.4253292">
        <ele>1409.3</ele>
      </trkpt>
      <trkpt lat="41.8259925" lon="2.4256918">
        <ele>1413.6</ele>
      </trkpt>
      <trkpt lat="41.8263784" lon="2.4260545">
        <ele>1417.9</ele>
      </trkpt>
      <trkpt lat="41.8267642" lon="2.4264171">
        <ele>1422.1</ele>
      </trkpt>
      <trkpt lat="41.8271501" lon="2.4267797">
        <ele>1426.4</ele>
      </trkpt>
      <trkpt lat="41.8275360" lon="2.4271423">
        <ele>1430.7</ele>
      </trkpt>
      <trkpt lat="41.8279219" lon="2.4275049">
        <ele>1435.0</ele>
      </trkpt>
      <trkpt lat="41.8283077" lon="2.4278676">
        <ele>1439.3</ele>
      </trkpt>
      <trkpt lat="41.8286936" lon="2.4282302">
        <ele>1443.6</ele>
      </trkpt>
      <trkpt lat="41.8290795" lon="2.4285928">
        <ele>1447.9</ele>
      </trkpt>
      <trkpt lat="41.8294653" lon="2.4289554">
        <ele>1452.1</ele>
      </trkpt>
      <trkpt lat="41.8298512" lon="2.4293181">
        <ele>1456.4</ele>
      </trkpt>
      <trkpt lat="41.8302371" lon="2.4296807">
        <ele>1460.7</ele>
      </trkpt>
      <trkpt lat="41.8306229" lon="2.4300433">
        <ele>1465.0</ele>
      </trkpt>
      <trkpt lat="41.8310573" lon="2.4301995">
        <ele>1470.7</ele>
      </trkpt>
      <trkpt lat="41.8314916" lon="2.4303557">
        <ele>1476.4</ele>
      </trkpt>
      <trkpt lat="41.8319259" lon="2.4305119">
        <ele>1482.1</ele>
      </trkpt>
      <trkpt lat="41.8323603" lon="2.4306681">
        <ele>1487.9</ele>
      </trkpt>
      <trkpt lat="41.8327946" lon="2.4308243">
        <ele>1493.6</ele>
      </trkpt>
      <trkpt lat="41.8332290" lon="2.4309805">
        <ele>1499.3</ele>
      </trkpt>
      <trkpt lat="41.8336633" lon="2.4311367">
        <ele>1505.0</ele>
      </trkpt>
      <trkpt lat="41.8340976" lon="2.4312929">
        <ele>1510.7</ele>
      </trkpt>
      <trkpt lat="41.8345320" lon="2.4314491">
        <ele>1516.4</ele>
      </trkpt>
      <trkpt lat="41.8349663" lon="2.4316054">
        <ele>1522.1</ele>
      </trkpt>
      <trkpt lat="41.8354006" lon="2.4317616">
        <ele>1527.9</ele>
      </trkpt>
      <trkpt lat="41.8358350" lon="2.4319178">
        <ele>1533.6</ele>
      </trkpt>
      <trkpt lat="41.8362693" lon="2.4320740">
        <ele>1539.3</ele>
      </trkpt>
      <trkpt lat="41.8367037" lon="2.4322302">
        <ele>1545.0</ele>
      </trkpt>
      <trkpt lat="41.8371112" lon="2.4324853">
        <ele>1550.4</ele>
      </trkpt>
      <trkpt lat="41.8375187" lon="2.4327403">
        <ele>1555.8</ele>
      </trkpt>
      <trkpt lat="41.8379262" lon="2.4329954">
        <ele>1561.2</ele>
      </trkpt>
      <trkpt lat="41.8383338" lon="2.4332505">
        <ele>1566.7</ele>
      </trkpt>
      <trkpt lat="41.8387413" lon="2.4335056">
        <ele>1572.1</ele>
      </trkpt>
      <trkpt lat="41.8391488" lon="2.4337607">
        <ele>1577.5</ele>
      </trkpt>
      <trkpt lat="41.8395563" lon="2.4340158">
        <ele>1582.9</ele>
      </trkpt>
      <trkpt lat="41.8399639" lon="2.4342708">
        <ele>1588.3</ele>
      </trkpt>
      <trkpt lat="41.8403714" lon="2.4345259">
        <ele>1593.8</ele>
      </trkpt>
      <trkpt lat="41.8407789" lon="2.4347810">
        <ele>1599.2</ele>
      </trkpt>
      <trkpt lat="41.8411865" lon="2.4350361">
        <ele>1604.6</ele>
      </trkpt>
      <trkpt lat="41.8415940" lon="2.4352912">
        <ele>1610.0</ele>
      </trkpt>
      <trkpt lat="41.8420419" lon="2.4353438">
        <ele>1611.2</ele>
      </trkpt>
      <trkpt lat="41.8424899" lon="2.4353964">
        <ele>1612.5</ele>
      </trkpt>
      <trkpt lat="41.8429378" lon="2.4354490">
        <ele>1613.8</ele>
      </trkpt>
      <trkpt lat="41.8433858" lon="2.4355016">
        <ele>1615.0</ele>
      </trkpt>
      <trkpt lat="41.8438337" lon="2.4355542">
        <ele>1616.2</ele>
      </trkpt>
      <trkpt lat="41.8442817" lon="2.4356068">
        <ele>1617.5</ele>
      </trkpt>
      <trkpt lat="41.8447296" lon="2.4356594">
        <ele>1618.8</ele>
      </trkpt>
      <trkpt lat="41.8451776" lon="2.4357120">
        <ele>1620.0</ele>
      </trkpt>
      <trkpt lat="41.8447225" lon="2.4354897">
        <ele>1613.8</ele>
      </trkpt>
      <trkpt lat="41.8442675" lon="2.4352674">
        <ele>1607.7</ele>
      </trkpt>
      <trkpt lat="41.8438124" lon="2.4350451">
        <ele>1601.5</ele>
      </trkpt>
      <trkpt lat="41.8433574" lon="2.4348228">
        <ele>1595.4</ele>
      </trkpt>
      <trkpt lat="41.8429023" lon="2.4346005">
        <ele>1589.2</ele>
      </trkpt>
      <trkpt lat="41.8424473" lon="2.4343782">
        <ele>1583.1</ele>
      </trkpt>
      <trkpt lat="41.8419922" lon="2.4341559">
        <ele>1576.9</ele>
      </trkpt>
      <trkpt lat="41.8415372" lon="2.4339336">
        <ele>1570.8</ele>
      </trkpt>
      <trkpt lat="41.8410821" lon="2.4337113">
        <ele>1564.6</ele>
      </trkpt>
      <trkpt lat="41.8406271" lon="2.4334890">
        <ele>1558.5</ele>
      </trkpt>
      <trkpt lat="41.8401720" lon="2.4332667">
        <ele>1552.3</ele>
      </trkpt>
      <trkpt lat="41.8397170" lon="2.4330443">
        <ele>1546.2</ele>
      </trkpt>
      <trkpt lat="41.8392619" lon="2.4328220">
        <ele>1540.0</ele>
      </trkpt>
      <trkpt lat="41.8388496" lon="2.4325025">
        <ele>1534.1</ele>
      </trkpt>
      <trkpt lat="41.8384373" lon="2.4321831">
        <ele>1528.2</ele>
      </trkpt>
      <trkpt lat="41.8380250" lon="2.4318636">
        <ele>1522.4</ele>
      </trkpt>
      <trkpt lat="41.8376126" lon="2.4315441">
        <ele>1516.5</ele>
      </trkpt>
      <trkpt lat="41.8372003" lon="2.4312246">
        <ele>1510.6</ele>
      </trkpt>
      <trkpt lat="41.8367880" lon="2.4309051">
        <ele>1504.7</ele>
      </trkpt>
      <trkpt lat="41.8363756" lon="2.4305856">
        <ele>1498.8</ele>
      </trkpt>
      <trkpt lat="41.8359633" lon="2.4302661">
        <ele>1492.9</ele>
      </trkpt>
      <trkpt lat="41.8355510" lon="2.4299466">
        <ele>1487.1</ele>
      </trkpt>
      <trkpt lat="41.8351386" lon="2.4296271">
        <ele>1481.2</ele>
      </trkpt>
      <trkpt lat="41.8347263" lon="2.4293076">
        <ele>1475.3</ele>
      </trkpt>
      <trkpt lat="41.8343140" lon="2.4289881">
        <ele>1469.4</ele>
      </trkpt>
      <trkpt lat="41.8339016" lon="2.4286686">
        <ele>1463.5</ele>
      </trkpt>
      <trkpt lat="41.8334893" lon="2.4283491">
        <ele>1457.6</ele>
      </trkpt>
      <trkpt lat="41.8330770" lon="2.4280296">
        <ele>1451.8</ele>
      </trkpt>
      <trkpt lat="41.8326646" lon="2.4277101">
        <ele>1445.9</ele>
      </trkpt>
      <trkpt lat="41.8322523" lon="2.4273906">
        <ele>1440.0</ele>
      </trkpt>
      <trkpt lat="41.8317962" lon="2.4272267">
        <ele>1434.5</ele>
      </trkpt>
      <trkpt lat="41.8313402" lon="2.4270627">
        <ele>1429.0</ele>
      </trkpt>
      <trkpt lat="41.8308841" lon="2.4268987">
        <ele>1423.5</ele>
      </trkpt>
      <trkpt lat="41.8304281" lon="2.4267347">
        <ele>1418.0</ele>
      </trkpt>
      <trkpt lat="41.8299720" lon="2.4265707">
        <ele>1412.5</ele>
      </trkpt>
      <trkpt lat="41.8295160" lon="2.4264067">
        <ele>1407.0</ele>
      </trkpt>
      <trkpt lat="41.8290599" lon="2.4262428">
        <ele>1401.5</ele>
      </trkpt>
      <trkpt lat="41.8286038" lon="2.4260788">
        <ele>1396.0</ele>
      </trkpt>
      <trkpt lat="41.8281478" lon="2.4259148">
        <ele>1390.5</ele>
      </trkpt>
      <trkpt lat="41.8276917" lon="2.4257508">
        <ele>1385.0</ele>
      </trkpt>
      <trkpt lat="41.8272357" lon="2.4255868">
        <ele>1379.5</ele>
      </trkpt>
      <trkpt lat="41.8267796" lon="2.4254229">
        <ele>1374.0</ele>
      </trkpt>
      <trkpt lat="41.8263235" lon="2.4252589">
        <ele>1368.5</ele>
      </trkpt>
      <trkpt lat="41.8258675" lon="2.4250949">
        <ele>1363.0</ele>
      </trkpt>
      <trkpt lat="41.8254114" lon="2.4249309">
        <ele>1357.5</ele>
      </trkpt>
      <trkpt lat="41.8249554" lon="2.4247669">
        <ele>1352.0</ele>
      </trkpt>
      <trkpt lat="41.8244993" lon="2.4246030">
        <ele>1346.5</ele>
      </trkpt>
      <trkpt lat="41.8240433" lon="2.4244390">
        <ele>1341.0</ele>
      </trkpt>
      <trkpt lat="41.8235872" lon="2.4242750">
        <ele>1335.5</ele>
      </trkpt>
      <trkpt lat="41.8231311" lon="2.4241110">
        <ele>1330.0</ele>
      </trkpt>
      <trkpt lat="41.8227867" lon="2.4237232">
        <ele>1324.4</ele>
      </trkpt>
      <trkpt lat="41.8224422" lon="2.4233354">
        <ele>1318.9</ele>
      </trkpt>
      <trkpt lat="41.8220977" lon="2.4229475">
        <ele>1313.3</ele>
      </trkpt>
      <trkpt lat="41.8217532" lon="2.4225597">
        <ele>1307.8</ele>
      </trkpt>
      <trkpt lat="41.8214088" lon="2.4221719">
        <ele>1302.2</ele>
      </trkpt>
      <trkpt lat="41.8210643" lon="2.4217841">
        <ele>1296.7</ele>
      </trkpt>
      <trkpt lat="41.8207198" lon="2.4213962">
        <ele>1291.1</ele>
      </trkpt>
      <trkpt lat="41.8203754" lon="2.4210084">
        <ele>1285.6</ele>
      </trkpt>
      <trkpt lat="41.8200309" lon="2.4206206">
        <ele>1280.0</ele>
      </trkpt>
      <trkpt lat="41.8196864" lon="2.4202328">
        <ele>1274.4</ele>
      </trkpt>
      <trkpt lat="41.8193419" lon="2.4198450">
        <ele>1268.9</ele>
      </trkpt>
      <trkpt lat="41.8189975" lon="2.4194571">
        <ele>1263.3</ele>
      </trkpt>
      <trkpt lat="41.8186530" lon="2.4190693">
        <ele>1257.8</ele>
      </trkpt>
      <trkpt lat="41.8183085" lon="2.4186815">
        <ele>1252.2</ele>
      </trkpt>
      <trkpt lat="41.8179641" lon="2.4182937">
        <ele>1246.7</ele>
      </trkpt>
      <trkpt lat="41.8176196" lon="2.4179058">
        <ele>1241.1</ele>
      </trkpt>
      <trkpt lat="41.8172751" lon="2.4175180">
        <ele>1235.6</ele>
      </trkpt>
      <trkpt lat="41.8169306" lon="2.4171302">
        <ele>1230.0</ele>
      </trkpt>
      <trkpt lat="41.8165027" lon="2.4168625">
        <ele>1224.5</ele>
      </trkpt>
      <trkpt lat="41.8160748" lon="2.4165948">
        <ele>1219.0</ele>
      </trkpt>
      <trkpt lat="41.8156469" lon="2.4163271">
        <ele>1213.5</ele>
      </trkpt>
      <trkpt lat="41.8152190" lon="2.4160594">
        <ele>1208.0</ele>
      </trkpt>
      <trkpt lat="41.8147911" lon="2.4157917">
        <ele>1202.5</ele>
      </trkpt>
      <trkpt lat="41.8143632" lon="2.4155240">
        <ele>1197.0</ele>
      </trkpt>
      <trkpt lat="41.8139352" lon="2.4152563">
        <ele>1191.5</ele>
      </trkpt>
      <trkpt lat="41.8135073" lon="2.4149886">
        <ele>1186.0</ele>
      </trkpt>
      <trkpt lat="41.8130794" lon="2.4147209">
        <ele>1180.5</ele>
      </trkpt>
      <trkpt lat="41.8126515" lon="2.4144532">
        <ele>1175.0</ele>
      </trkpt>
      <trkpt lat="41.8122236" lon="2.4141855">
        <ele>1169.5</ele>
      </trkpt>
      <trkpt lat="41.8117957" lon="2.4139178">
        <ele>1164.0</ele>
      </trkpt>
      <trkpt lat="41.8113678" lon="2.4136501">
        <ele>1158.5</ele>
      </trkpt>
      <trkpt lat="41.8109398" lon="2.4133824">
        <ele>1153.0</ele>
      </trkpt>
      <trkpt lat="41.8105119" lon="2.4131147">
        <ele>1147.5</ele>
      </trkpt>
      <trkpt lat="41.8100840" lon="2.4128470">
        <ele>1142.0</ele>
      </trkpt>
      <trkpt lat="41.8096561" lon="2.4125793">
        <ele>1136.5</ele>
      </trkpt>
      <trkpt lat="41.8092282" lon="2.4123116">
        <ele>1131.0</ele>
      </trkpt>
      <trkpt lat="41.8088003" lon="2.4120439">
        <ele>1125.5</ele>
      </trkpt>
      <trkpt lat="41.8083724" lon="2.4117762">
        <ele>1120.0</ele>
      </trkpt>
      <trkpt lat="41.8080040" lon="2.4114302">
        <ele>1115.0</ele>
      </trkpt>
      <trkpt lat="41.8076357" lon="2.4110843">
        <ele>1110.0</ele>
      </trkpt>
      <trkpt lat="41.8072673" lon="2.4107383">
        <ele>1105.0</ele>
      </trkpt>
      <trkpt lat="41.8068990" lon="2.4103923">
        <ele>1100.0</ele>
      </trkpt>
      <trkpt lat="41.8065306" lon="2.4100463">
        <ele>1095.0</ele>
      </trkpt>
      <trkpt lat="41.8061623" lon="2.4097003">
        <ele>1090.0</ele>
      </trkpt>
      <trkpt lat="41.8057939" lon="2.4093543">
        <ele>1085.0</ele>
      </trkpt>
      <trkpt lat="41.8054256" lon="2.4090084">
        <ele>1080.0</ele>
      </trkpt>
      <trkpt lat="41.8050572" lon="2.4086624">
        <ele>1075.0</ele>
      </trkpt>
      <trkpt lat="41.8046889" lon="2.4083164">
        <ele>1070.0</ele>
      </trkpt>
      <trkpt lat="41.8043205" lon="2.4079704">
        <ele>1065.0</ele>
      </trkpt>
      <trkpt lat="41.8039522" lon="2.4076244">
        <ele>1060.0</ele>
      </trkpt>
      <trkpt lat="41.8035838" lon="2.4072785">
        <ele>1055.0</ele>
      </trkpt>
      <trkpt lat="41.8032155" lon="2.4069325">
        <ele>1050.0</ele>
      </trkpt>
      <trkpt lat="41.8028471" lon="2.4065865">
        <ele>1045.0</ele>
      </trkpt>
      <trkpt lat="41.8024788" lon="2.4062405">
        <ele>1040.0</ele>
      </trkpt>
      <trkpt lat="41.8021104" lon="2.4058945">
        <ele>1035.0</ele>
      </trkpt>
      <trkpt lat="41.8017421" lon="2.4055485">
        <ele>1030.0</ele>
      </trkpt>
      <trkpt lat="41.8012652" lon="2.4054357">
        <ele>1026.2</ele>
      </trkpt>
      <trkpt lat="41.8007883" lon="2.4053230">
        <ele>1022.3</ele>
      </trkpt>
      <trkpt lat="41.8003114" lon="2.4052102">
        <ele>1018.5</ele>
      </trkpt>
      <trkpt lat="41.7998345" lon="2.4050974">
        <ele>1014.6</ele>
      </trkpt>
      <trkpt lat="41.7993576" lon="2.4049846">
        <ele>1010.8</ele>
      </trkpt>
      <trkpt lat="41.7988807" lon="2.4048718">
        <ele>1006.9</ele>
      </trkpt>
      <trkpt lat="41.7984038" lon="2.4047590">
        <ele>1003.1</ele>
      </trkpt>
      <trkpt lat="41.7979269" lon="2.4046462">
        <ele>999.2</ele>
      </trkpt>
      <trkpt lat="41.7974500" lon="2.4045334">
        <ele>995.4</ele>
      </trkpt>
      <trkpt lat="41.7969731" lon="2.4044206">
        <ele>991.5</ele>
      </trkpt>
      <trkpt lat="41.7964962" lon="2.4043078">
        <ele>987.7</ele>
      </trkpt>
      <trkpt lat="41.7960193" lon="2.4041950">
        <ele>983.8</ele>
      </trkpt>
      <trkpt lat="41.7955424" lon="2.4040822">
        <ele>980.0</ele>
      </trkpt>
      <trkpt lat="41.7950681" lon="2.4040266">
        <ele>977.1</ele>
      </trkpt>
      <trkpt lat="41.7945938" lon="2.4039709">
        <ele>974.1</ele>
      </trkpt>
      <trkpt lat="41.7941195" lon="2.4039153">
        <ele>971.2</ele>
      </trkpt>
      <trkpt lat="41.7936452" lon="2.4038596">
        <ele>968.2</ele>
      </trkpt>
      <trkpt lat="41.7931709" lon="2.4038040">
        <ele>965.3</ele>
      </trkpt>
      <trkpt lat="41.7926966" lon="2.4037483">
        <ele>962.4</ele>
      </trkpt>
      <trkpt lat="41.7922223" lon="2.4036927">
        <ele>959.4</ele>
      </trkpt>
      <trkpt lat="41.7917480" lon="2.4036370">
        <ele>956.5</ele>
      </trkpt>
      <trkpt lat="41.7912737" lon="2.4035814">
        <ele>953.5</ele>
      </trkpt>
      <trkpt lat="41.7907994" lon="2.4035257">
        <ele>950.6</ele>
      </trkpt>
      <trkpt lat="41.7903251" lon="2.4034701">
        <ele>947.6</ele>
      </trkpt>
      <trkpt lat="41.7898508" lon="2.4034144">
        <ele>944.7</ele>
      </trkpt>
      <trkpt lat="41.7893765" lon="2.4033588">
        <ele>941.8</ele>
      </trkpt>
      <trkpt lat="41.7889022" lon="2.4033031">
        <ele>938.8</ele>
      </trkpt>
      <trkpt lat="41.7884279" lon="2.4032475">
        <ele>935.9</ele>
      </trkpt>
      <trkpt lat="41.7879536" lon="2.4031918">
        <ele>932.9</ele>
      </trkpt>
      <trkpt lat="41.7874793" lon="2.4031362">
        <ele>930.0</ele>
      </trkpt>
      <trkpt lat="41.7869816" lon="2.4031946">
        <ele>928.9</ele>
      </trkpt>
      <trkpt lat="41.7864839" lon="2.4032529">
        <ele>927.8</ele>
      </trkpt>
      <trkpt lat="41.7859862" lon="2.4033113">
        <ele>926.7</ele>
      </trkpt>
      <trkpt lat="41.7854885" lon="2.4033697">
        <ele>925.6</ele>
      </trkpt>
      <trkpt lat="41.7849907" lon="2.4034281">
        <ele>924.4</ele>
      </trkpt>
      <trkpt lat="41.7844930" lon="2.4034865">
        <ele>923.3</ele>
      </trkpt>
      <trkpt lat="41.7839953" lon="2.4035449">
        <ele>922.2</ele>
      </trkpt>
      <trkpt lat="41.7834976" lon="2.4036033">
        <ele>921.1</ele>
      </trkpt>
      <trkpt lat="41.7829998" lon="2.4036617">
        <ele>920.0</ele>
      </trkpt>
    </trkseg>
  </trk>
</gpx>
